{
  "type": "FeatureCollection",
  "features": [
    {
      "type": "Feature",
      "properties": {
        "companies": 1,
        "place_name": "Madrid",
        "day": 3,
        "company_name": "Oryzon"
      },
      "geometry": {
        "coordinates": [
          -3.685277,
          40.431984
        ],
        "type": "Point"
      }
    },
    {
      "type": "Feature",
      "properties": {
        "companies": 2,
        "place_name": "Madrid",
        "day": 4,
        "company_name": "Eurona"
      },
      "geometry": {
        "coordinates": [
          -3.685277,
          40.431984
        ],
        "type": "Point"
      }
    },
    {
      "type": "Feature",
      "properties": {
        "companies": 1,
        "place_name": "Zaragoza",
        "company_name": "Proclinic",
        "day": 4
      },
      "geometry": {
        "coordinates": [
          -0.862361,
          41.66255
        ],
        "type": "Point"
      }
    },
    {
  "type": "Feature",
  "properties": {
    "companies": 1,
    "place_name": "Zaragoza",
    "company_name": "",
    "day": 5
  },
  "geometry": {
    "coordinates": [
      -0.862361,
      41.66255
    ],
    "type": "Point"
  }
},
    {
      "type": "Feature",
      "properties": {
        "companies": 3,
        "place_name": "Madrid",
        "day": 5,
        "company_name": "Dogi"
      },
      "geometry": {
        "coordinates": [
          -3.685277,
          40.431984
        ],
        "type": "Point"
      }
    },
    {
      "type": "Feature",
      "properties": {
        "place_name": "Alicante",
        "companies": 1,
        "company_name": "Sabadell",
        "day": 5
      },
      "geometry": {
        "coordinates": [
          -0.48306,
          38.34528
        ],
        "type": "Point"
      }
    },
    {
  "type": "Feature",
  "properties": {
    "place_name": "Alicante, Alicante/Alacant, Spain",
    "companies": 1,
    "company_name": "",
    "day": 6
  },
  "geometry": {
    "coordinates": [
      -0.48306,
      38.34528
    ],
    "type": "Point"
  }
},
{
  "type": "Feature",
  "properties": {
    "companies": 1,
    "place_name": "Zaragoza",
    "company_name": "",
    "day": 6
  },
  "geometry": {
    "coordinates": [
      -0.862361,
      41.66255
    ],
    "type": "Point"
  }
},
    {
      "type": "Feature",
      "properties": {
        "companies": 6,
        "place_name": "Madrid",
        "day": 6,
        "company_name": "Gas Natural Fenosa, Service Point, Arquia Banca"
      },
      "geometry": {
        "coordinates": [
          -3.685277,
          40.431984
        ],
        "type": "Point"
      }
    },
    {
      "type": "Feature",
      "properties": {
        "companies": 2,
        "place_name": "Valencia",
        "company_name": "Caixabank, Banco Mediolanum",
        "day": 6
      },
      "geometry": {
        "coordinates": [
          -0.380636,
          39.472596
        ],
        "type": "Point"
      }
    },
    {
  "type": "Feature",
  "properties": {
    "place_name": "Alicante, Alicante/Alacant, Spain",
    "companies": 1,
    "company_name": "",
    "day": 7
  },
  "geometry": {
    "coordinates": [
      -0.48306,
      38.34528
    ],
    "type": "Point"
  }
},
{
  "type": "Feature",
  "properties": {
    "companies": 2,
    "place_name": "Valencia",
    "company_name": "",
    "day": 7
  },
  "geometry": {
    "coordinates": [
      -0.380636,
      39.472596
    ],
    "type": "Point"
  }
},
    {
      "type": "Feature",
      "properties": {
        "companies": 9,
        "place_name": "Madrid",
        "day": 7,
        "company_name": "Agbar, Ballenoil, Lleida.net"
      },
      "geometry": {
        "coordinates": [
          -3.685277,
          40.431984
        ],
        "type": "Point"
      }
    },
    {
      "type": "Feature",
      "properties": {
        "companies": 1,
        "place_name": "Palma de Mallorca",
        "company_name": "Fundación Bancaria La Caixa",
        "day": 7
      },
      "geometry": {
        "coordinates": [
          2.64972,
          39.56667
        ],
        "type": "Point"
      }
    },
    {
      "type": "Feature",
      "properties": {
        "companies": 2,
        "place_name": "Zaragoza",
        "company_name": "MGS Seguros",
        "day": 7
      },
      "geometry": {
        "coordinates": [
          -0.862361,
          41.66255
        ],
        "type": "Point"
      }
    },
    {
  "type": "Feature",
  "properties": {
    "place_name": "Alicante, Alicante/Alacant, Spain",
    "companies": 1,
    "company_name": "",
    "day": 8
  },
  "geometry": {
    "coordinates": [
      -0.48306,
      38.34528
    ],
    "type": "Point"
  }
},
{
  "type": "Feature",
  "properties": {
    "companies": 2,
    "place_name": "Valencia",
    "company_name": "",
    "day": 8
  },
  "geometry": {
    "coordinates": [
      -0.380636,
      39.472596
    ],
    "type": "Point"
  }
},
    {
      "type": "Feature",
      "properties": {
        "companies": 9,
        "place_name": "Madrid",
        "day": 8,
        "company_name": "Agbar, Ballenoil, Lleida.net"
      },
      "geometry": {
        "coordinates": [
          -3.685277,
          40.431984
        ],
        "type": "Point"
      }
    },
    {
      "type": "Feature",
      "properties": {
        "companies": 1,
        "place_name": "Palma de Mallorca",
        "company_name": "Fundación Bancaria La Caixa",
        "day": 8
      },
      "geometry": {
        "coordinates": [
          2.64972,
          39.56667
        ],
        "type": "Point"
      }
    },
    {
      "type": "Feature",
      "properties": {
        "companies": 2,
        "place_name": "Zaragoza",
        "company_name": "MGS Seguros",
        "day": 8
      },
      "geometry": {
        "coordinates": [
          -0.862361,
          41.66255
        ],
        "type": "Point"
      }
    },
    {
  "type": "Feature",
  "properties": {
    "companies": 2,
    "place_name": "Zaragoza",
    "company_name": "",
    "day": 9
  },
  "geometry": {
    "coordinates": [
      -0.862361,
      41.66255
    ],
    "type": "Point"
  }
},
{
  "type": "Feature",
  "properties": {
    "place_name": "Alicante, Alicante/Alacant, Spain",
    "companies": 1,
    "company_name": "",
    "day": 9
  },
  "geometry": {
    "coordinates": [
      -0.48306,
      38.34528
    ],
    "type": "Point"
  }
},
{
  "type": "Feature",
  "properties": {
    "companies": 1,
    "place_name": "Palma de Mallorca",
    "company_name": "",
    "day": 9
  },
  "geometry": {
    "coordinates": [
      2.64972,
      39.56667
    ],
    "type": "Point"
  }
},
    {
      "type": "Feature",
      "properties": {
        "companies": 19,
        "place_name": "Madrid",
        "day": 9,
        "company_name": "Torraspapel, Adeslas, VidaCaixa,  CaixaBank AM, Colonial, GVC Gaesco,  DVD Dental, Abertis, Cellnex, Trea Asset Management "
      },
      "geometry": {
        "coordinates": [
          -3.685277,
          40.431984
        ],
        "type": "Point"
      }
    },
    {
      "type": "Feature",
      "properties": {
        "companies": 1,
        "place_name": "Malaga",
        "company_name": "San Miguel",
        "day": 9
      },
      "geometry": {
        "coordinates": [
          -4.412525,
          36.720476
        ],
        "type": "Point"
      }
    },
    {
      "type": "Feature",
      "properties": {
        "companies": 1,
        "place_name": "Santiago de Compostela",
        "company_name": "Pesa",
        "day": 9
      },
      "geometry": {
        "coordinates": [
          -8.542904,
          42.874575
        ],
        "type": "Point"
      }
    },
    {
      "type": "Feature",
      "properties": {
        "companies": 3,
        "place_name": "Valencia",
        "company_name": "MRW",
        "day": 9
      },
      "geometry": {
        "coordinates": [
          -0.380636,
          39.472596
        ],
        "type": "Point"
      }
    },
    {
  "type": "Feature",
  "properties": {
    "place_name": "Alicante, Alicante/Alacant, Spain",
    "companies": 1,
    "company_name": "",
    "day": 10
  },
  "geometry": {
    "coordinates": [
      -0.48306,
      38.34528
    ],
    "type": "Point"
  }
},
{
  "type": "Feature",
  "properties": {
    "companies": 1,
    "place_name": "Palma de Mallorca",
    "company_name": "",
    "day": 10
  },
  "geometry": {
    "coordinates": [
      2.64972,
      39.56667
    ],
    "type": "Point"
  }
},
{
  "type": "Feature",
  "properties": {
    "companies": 2,
    "place_name": "Zaragoza",
    "company_name": "",
    "day": 10
  },
  "geometry": {
    "coordinates": [
      -0.862361,
      41.66255
    ],
    "type": "Point"
  }
},
{
  "type": "Feature",
  "properties": {
    "companies": 1,
    "place_name": "Santiago de Compostela",
    "company_name": "",
    "day": 10
  },
  "geometry": {
    "coordinates": [
      -8.542904,
      42.874575
    ],
    "type": "Point"
  }
},
{
  "type": "Feature",
  "properties": {
    "companies": 2,
    "place_name": "Valencia",
    "company_name": "",
    "day": 10
  },
  "geometry": {
    "coordinates": [
      -0.380636,
      39.472596
    ],
    "type": "Point"
  }
},
    {
      "type": "Feature",
      "properties": {
        "companies": 25,
        "place_name": "Madrid",
        "day": 10,
        "company_name": "Catalana Occidente, Grupo Planeta, EDM, Gesiuris, Indukern, eDreams,  "
      },
      "geometry": {
        "coordinates": [
          -3.685277,
          40.431984
        ],
        "type": "Point"
      }
    },
    {
      "type": "Feature",
      "properties": {
        "companies": 2,
        "place_name": "Malaga",
        "company_name": "Sanantur",
        "day": 10
      },
      "geometry": {
        "coordinates": [
          -4.412525,
          36.720476
        ],
        "type": "Point"
      }
    },
    {
  "type": "Feature",
  "properties": {
    "companies": 1,
    "place_name": "Palma de Mallorca",
    "company_name": "",
    "day": 11
  },
  "geometry": {
    "coordinates": [
      2.64972,
      39.56667
    ],
    "type": "Point"
  }
},
{
  "type": "Feature",
  "properties": {
    "companies": 2,
    "place_name": "Zaragoza",
    "company_name": "",
    "day": 11
  },
  "geometry": {
    "coordinates": [
      -0.862361,
      41.66255
    ],
    "type": "Point"
  }
},
{
  "type": "Feature",
  "properties": {
    "companies": 1,
    "place_name": "Santiago de Compostela",
    "company_name": "",
    "day": 11
  },
  "geometry": {
    "coordinates": [
      -8.542904,
      42.874575
    ],
    "type": "Point"
  }
},
{
  "type": "Feature",
  "properties": {
    "companies": 2,
    "place_name": "Malaga",
    "company_name": "",
    "day": 11
  },
  "geometry": {
    "coordinates": [
      -4.412525,
      36.720476
    ],
    "type": "Point"
  }
},
    {
      "type": "Feature",
      "properties": {
        "place_name": "Alicante",
        "companies": 2,
        "company_name": "Cémoi Electricité",
        "day": 11
      },
      "geometry": {
        "coordinates": [
          -0.48306,
          38.34528
        ],
        "type": "Point"
      }
    },
    {
      "type": "Feature",
      "properties": {
        "companies": 1,
        "place_name": "Bilbao",
        "company_name": "AXA España",
        "day": 11
      },
      "geometry": {
        "coordinates": [
          -2.95333,
          43.26222
        ],
        "type": "Point"
      }
    },
    {
      "type": "Feature",
      "properties": {
        "companies": 28,
        "place_name": "Madrid",
        "day": 11,
        "company_name": "Bimbo, Industrias Ponsa, Applus"
      },
      "geometry": {
        "coordinates": [
          -3.685277,
          40.431984
        ],
        "type": "Point"
      }
    },
    {
      "type": "Feature",
      "properties": {
        "companies": 5,
        "place_name": "Valencia",
        "company_name": "Divina Pastora, Idilia Foods",
        "day": 11
      },
      "geometry": {
        "coordinates": [
          -0.380636,
          39.472596
        ],
        "type": "Point"
      }
    },
    {
  "type": "Feature",
  "properties": {
    "companies": 1,
    "place_name": "Palma de Mallorca",
    "company_name": "",
    "day": 12
  },
  "geometry": {
    "coordinates": [
      2.64972,
      39.56667
    ],
    "type": "Point"
  }
},
{
  "type": "Feature",
  "properties": {
    "companies": 2,
    "place_name": "Zaragoza",
    "company_name": "",
    "day": 12
  },
  "geometry": {
    "coordinates": [
      -0.862361,
      41.66255
    ],
    "type": "Point"
  }
},
{
  "type": "Feature",
  "properties": {
    "companies": 1,
    "place_name": "Santiago de Compostela",
    "company_name": "",
    "day": 12
  },
  "geometry": {
    "coordinates": [
      -8.542904,
      42.874575
    ],
    "type": "Point"
  }
},
{
  "type": "Feature",
  "properties": {
    "companies": 2,
    "place_name": "Malaga",
    "company_name": "",
    "day": 12
  },
  "geometry": {
    "coordinates": [
      -4.412525,
      36.720476
    ],
    "type": "Point"
  }
},
    {
      "type": "Feature",
      "properties": {
        "place_name": "Alicante",
        "companies": 2,
        "company_name": "",
        "day": 12
      },
      "geometry": {
        "coordinates": [
          -0.48306,
          38.34528
        ],
        "type": "Point"
      }
    },
    {
      "type": "Feature",
      "properties": {
        "companies": 1,
        "place_name": "Bilbao",
        "company_name": "",
        "day": 12
      },
      "geometry": {
        "coordinates": [
          -2.95333,
          43.26222
        ],
        "type": "Point"
      }
    },
    {
      "type": "Feature",
      "properties": {
        "companies": 28,
        "place_name": "Madrid",
        "day": 12,
        "company_name": ""
      },
      "geometry": {
        "coordinates": [
          -3.685277,
          40.431984
        ],
        "type": "Point"
      }
    },
    {
      "type": "Feature",
      "properties": {
        "companies": 5,
        "place_name": "Valencia",
        "company_name": "",
        "day": 12
      },
      "geometry": {
        "coordinates": [
          -0.380636,
          39.472596
        ],
        "type": "Point"
      }
    },
    {
  "type": "Feature",
  "properties": {
    "companies": 1,
    "place_name": "Palma de Mallorca",
    "company_name": "",
    "day": 13
  },
  "geometry": {
    "coordinates": [
      2.64972,
      39.56667
    ],
    "type": "Point"
  }
},
{
  "type": "Feature",
  "properties": {
    "companies": 2,
    "place_name": "Zaragoza",
    "company_name": "",
    "day": 13
  },
  "geometry": {
    "coordinates": [
      -0.862361,
      41.66255
    ],
    "type": "Point"
  }
},
{
  "type": "Feature",
  "properties": {
    "companies": 1,
    "place_name": "Santiago de Compostela",
    "company_name": "",
    "day": 13
  },
  "geometry": {
    "coordinates": [
      -8.542904,
      42.874575
    ],
    "type": "Point"
  }
},
{
  "type": "Feature",
  "properties": {
    "companies": 2,
    "place_name": "Malaga",
    "company_name": "",
    "day": 13
  },
  "geometry": {
    "coordinates": [
      -4.412525,
      36.720476
    ],
    "type": "Point"
  }
},
    {
      "type": "Feature",
      "properties": {
        "place_name": "Alicante",
        "companies": 2,
        "company_name": "",
        "day": 13
      },
      "geometry": {
        "coordinates": [
          -0.48306,
          38.34528
        ],
        "type": "Point"
      }
    },
    {
      "type": "Feature",
      "properties": {
        "companies": 1,
        "place_name": "Bilbao",
        "company_name": "",
        "day": 13
      },
      "geometry": {
        "coordinates": [
          -2.95333,
          43.26222
        ],
        "type": "Point"
      }
    },
    {
      "type": "Feature",
      "properties": {
        "companies": 28,
        "place_name": "Madrid",
        "day": 13,
        "company_name": ""
      },
      "geometry": {
        "coordinates": [
          -3.685277,
          40.431984
        ],
        "type": "Point"
      }
    },
    {
      "type": "Feature",
      "properties": {
        "companies": 5,
        "place_name": "Valencia",
        "company_name": "",
        "day": 13
      },
      "geometry": {
        "coordinates": [
          -0.380636,
          39.472596
        ],
        "type": "Point"
      }
    },
    {
  "type": "Feature",
  "properties": {
    "companies": 1,
    "place_name": "Palma de Mallorca",
    "company_name": "",
    "day": 14
  },
  "geometry": {
    "coordinates": [
      2.64972,
      39.56667
    ],
    "type": "Point"
  }
},
{
  "type": "Feature",
  "properties": {
    "companies": 2,
    "place_name": "Zaragoza",
    "company_name": "",
    "day": 14
  },
  "geometry": {
    "coordinates": [
      -0.862361,
      41.66255
    ],
    "type": "Point"
  }
},
{
  "type": "Feature",
  "properties": {
    "companies": 1,
    "place_name": "Santiago de Compostela",
    "company_name": "",
    "day": 14
  },
  "geometry": {
    "coordinates": [
      -8.542904,
      42.874575
    ],
    "type": "Point"
  }
},
{
  "type": "Feature",
  "properties": {
    "companies": 2,
    "place_name": "Malaga",
    "company_name": "",
    "day": 14
  },
  "geometry": {
    "coordinates": [
      -4.412525,
      36.720476
    ],
    "type": "Point"
  }
},
    {
      "type": "Feature",
      "properties": {
        "place_name": "Alicante",
        "companies": 2,
        "company_name": "",
        "day": 14
      },
      "geometry": {
        "coordinates": [
          -0.48306,
          38.34528
        ],
        "type": "Point"
      }
    },
    {
      "type": "Feature",
      "properties": {
        "companies": 1,
        "place_name": "Bilbao",
        "company_name": "",
        "day": 14
      },
      "geometry": {
        "coordinates": [
          -2.95333,
          43.26222
        ],
        "type": "Point"
      }
    },
    {
      "type": "Feature",
      "properties": {
        "companies": 28,
        "place_name": "Madrid",
        "day": 14,
        "company_name": ""
      },
      "geometry": {
        "coordinates": [
          -3.685277,
          40.431984
        ],
        "type": "Point"
      }
    },
    {
      "type": "Feature",
      "properties": {
        "companies": 5,
        "place_name": "Valencia",
        "company_name": "",
        "day": 14
      },
      "geometry": {
        "coordinates": [
          -0.380636,
          39.472596
        ],
        "type": "Point"
      }
    },
    {
  "type": "Feature",
  "properties": {
    "companies": 1,
    "place_name": "Palma de Mallorca",
    "company_name": "",
    "day": 15
  },
  "geometry": {
    "coordinates": [
      2.64972,
      39.56667
    ],
    "type": "Point"
  }
},
{
  "type": "Feature",
  "properties": {
    "companies": 2,
    "place_name": "Zaragoza",
    "company_name": "",
    "day": 15
  },
  "geometry": {
    "coordinates": [
      -0.862361,
      41.66255
    ],
    "type": "Point"
  }
},
{
  "type": "Feature",
  "properties": {
    "companies": 1,
    "place_name": "Santiago de Compostela",
    "company_name": "",
    "day": 15
  },
  "geometry": {
    "coordinates": [
      -8.542904,
      42.874575
    ],
    "type": "Point"
  }
},
{
  "type": "Feature",
  "properties": {
    "companies": 2,
    "place_name": "Malaga",
    "company_name": "",
    "day": 15
  },
  "geometry": {
    "coordinates": [
      -4.412525,
      36.720476
    ],
    "type": "Point"
  }
},
    {
      "type": "Feature",
      "properties": {
        "place_name": "Alicante",
        "companies": 2,
        "company_name": "",
        "day": 15
      },
      "geometry": {
        "coordinates": [
          -0.48306,
          38.34528
        ],
        "type": "Point"
      }
    },
    {
      "type": "Feature",
      "properties": {
        "companies": 1,
        "place_name": "Bilbao",
        "company_name": "",
        "day": 15
      },
      "geometry": {
        "coordinates": [
          -2.95333,
          43.26222
        ],
        "type": "Point"
      }
    },
    {
      "type": "Feature",
      "properties": {
        "companies": 28,
        "place_name": "Madrid",
        "day": 15,
        "company_name": ""
      },
      "geometry": {
        "coordinates": [
          -3.685277,
          40.431984
        ],
        "type": "Point"
      }
    },
    {
      "type": "Feature",
      "properties": {
        "companies": 5,
        "place_name": "Valencia",
        "company_name": "",
        "day": 15
      },
      "geometry": {
        "coordinates": [
          -0.380636,
          39.472596
        ],
        "type": "Point"
      }
    },
    {
  "type": "Feature",
  "properties": {
    "companies": 1,
    "place_name": "Palma de Mallorca",
    "company_name": "",
    "day": 16
  },
  "geometry": {
    "coordinates": [
      2.64972,
      39.56667
    ],
    "type": "Point"
  }
},
{
  "type": "Feature",
  "properties": {
    "companies": 2,
    "place_name": "Zaragoza",
    "company_name": "",
    "day": 16
  },
  "geometry": {
    "coordinates": [
      -0.862361,
      41.66255
    ],
    "type": "Point"
  }
},
{
  "type": "Feature",
  "properties": {
    "companies": 1,
    "place_name": "Santiago de Compostela",
    "company_name": "",
    "day": 16
  },
  "geometry": {
    "coordinates": [
      -8.542904,
      42.874575
    ],
    "type": "Point"
  }
},
{
  "type": "Feature",
  "properties": {
    "companies": 2,
    "place_name": "Malaga",
    "company_name": "",
    "day": 16
  },
  "geometry": {
    "coordinates": [
      -4.412525,
      36.720476
    ],
    "type": "Point"
  }
},
{
  "type": "Feature",
  "properties": {
    "place_name": "Alicante, Alicante/Alacant, Spain",
    "companies": 2,
    "company_name": "",
    "day": 16
  },
  "geometry": {
    "coordinates": [
      -0.48306,
      38.34528
    ],
    "type": "Point"
  }
},
{
  "type": "Feature",
  "properties": {
    "companies": 1,
    "place_name": "Bilbao",
    "company_name": "",
    "day": 16
  },
  "geometry": {
    "coordinates": [
      -2.95333,
      43.26222
    ],
    "type": "Point"
  }
},
{
  "type": "Feature",
  "properties": {
    "companies": 5,
    "place_name": "Valencia",
    "company_name": "",
    "day": 16
  },
  "geometry": {
    "coordinates": [
      -0.380636,
      39.472596
    ],
    "type": "Point"
  }
},
    {
      "type": "Feature",
      "properties": {
        "companies": 1,
        "place_name": "La Rioja",
        "company_name": "Codorniu",
        "day": 16
      },
      "geometry": {
        "coordinates": [
          -2.482702,
          42.283149
        ],
        "type": "Point"
      }
    },
    {
      "type": "Feature",
      "properties": {
        "companies": 29,
        "place_name": "Madrid",
        "day": 16,
        "company_name": "TAB Spain"
      },
      "geometry": {
        "coordinates": [
          -3.685277,
          40.431984
        ],
        "type": "Point"
      }
    },
    {
      "type": "Feature",
      "properties": {
        "companies": 29,
        "place_name": "Madrid",
        "day": 17,
        "company_name": ""
      },
      "geometry": {
        "coordinates": [
          -3.685277,
          40.431984
        ],
        "type": "Point"
      }
    },
    {
  "type": "Feature",
  "properties": {
    "companies": 1,
    "place_name": "Palma de Mallorca",
    "company_name": "",
    "day": 17
  },
  "geometry": {
    "coordinates": [
      2.64972,
      39.56667
    ],
    "type": "Point"
  }
},
{
  "type": "Feature",
  "properties": {
    "companies": 2,
    "place_name": "Zaragoza",
    "company_name": "",
    "day": 17
  },
  "geometry": {
    "coordinates": [
      -0.862361,
      41.66255
    ],
    "type": "Point"
  }
},
{
  "type": "Feature",
  "properties": {
    "companies": 1,
    "place_name": "Santiago de Compostela",
    "company_name": "",
    "day": 17
  },
  "geometry": {
    "coordinates": [
      -8.542904,
      42.874575
    ],
    "type": "Point"
  }
},
{
  "type": "Feature",
  "properties": {
    "companies": 2,
    "place_name": "Malaga",
    "company_name": "",
    "day": 17
  },
  "geometry": {
    "coordinates": [
      -4.412525,
      36.720476
    ],
    "type": "Point"
  }
},
{
  "type": "Feature",
  "properties": {
    "place_name": "Alicante, Alicante/Alacant, Spain",
    "companies": 2,
    "company_name": "",
    "day": 17
  },
  "geometry": {
    "coordinates": [
      -0.48306,
      38.34528
    ],
    "type": "Point"
  }
},
{
  "type": "Feature",
  "properties": {
    "companies": 1,
    "place_name": "Bilbao",
    "company_name": "",
    "day": 17
  },
  "geometry": {
    "coordinates": [
      -2.95333,
      43.26222
    ],
    "type": "Point"
  }
},
{
  "type": "Feature",
  "properties": {
    "companies": 5,
    "place_name": "Valencia",
    "company_name": "",
    "day": 17
  },
  "geometry": {
    "coordinates": [
      -0.380636,
      39.472596
    ],
    "type": "Point"
  }
},
{
  "type": "Feature",
  "properties": {
    "companies": 1,
    "place_name": "La Rioja",
    "company_name": "",
    "day": 17
  },
  "geometry": {
    "coordinates": [
      -2.482702,
      42.283149
    ],
    "type": "Point"
  }
},
    {
      "type": "Feature",
      "properties": {
        "companies": 1,
        "place_name": "Cordoba",
        "company_name": "Pastas Gallo",
        "day": 17
      },
      "geometry": {
        "coordinates": [
          -4.76667,
          37.88333
        ],
        "type": "Point"
      }
    },
    {
      "type": "Feature",
      "properties": {
        "companies": 1,
        "place_name": "Navarra",
        "company_name": "La Bruixa d'Or",
        "day": 17
      },
      "geometry": {
        "coordinates": [
          -1.830759,
          42.613133
        ],
        "type": "Point"
      }
    },
    {
  "type": "Feature",
  "properties": {
    "companies": 1,
    "place_name": "Palma de Mallorca",
    "company_name": "",
    "day": 18
  },
  "geometry": {
    "coordinates": [
      2.64972,
      39.56667
    ],
    "type": "Point"
  }
},
{
  "type": "Feature",
  "properties": {
    "companies": 2,
    "place_name": "Zaragoza",
    "company_name": "",
    "day": 18
  },
  "geometry": {
    "coordinates": [
      -0.862361,
      41.66255
    ],
    "type": "Point"
  }
},
{
  "type": "Feature",
  "properties": {
    "companies": 1,
    "place_name": "Santiago de Compostela",
    "company_name": "",
    "day": 18
  },
  "geometry": {
    "coordinates": [
      -8.542904,
      42.874575
    ],
    "type": "Point"
  }
},
{
  "type": "Feature",
  "properties": {
    "companies": 2,
    "place_name": "Malaga",
    "company_name": "",
    "day": 18
  },
  "geometry": {
    "coordinates": [
      -4.412525,
      36.720476
    ],
    "type": "Point"
  }
},
{
  "type": "Feature",
  "properties": {
    "place_name": "Alicante, Alicante/Alacant, Spain",
    "companies": 2,
    "company_name": "",
    "day": 18
  },
  "geometry": {
    "coordinates": [
      -0.48306,
      38.34528
    ],
    "type": "Point"
  }
},
{
  "type": "Feature",
  "properties": {
    "companies": 1,
    "place_name": "Bilbao",
    "company_name": "",
    "day": 18
  },
  "geometry": {
    "coordinates": [
      -2.95333,
      43.26222
    ],
    "type": "Point"
  }
},
{
  "type": "Feature",
  "properties": {
    "companies": 5,
    "place_name": "Valencia",
    "company_name": "",
    "day": 18
  },
  "geometry": {
    "coordinates": [
      -0.380636,
      39.472596
    ],
    "type": "Point"
  }
},
{
  "type": "Feature",
  "properties": {
    "companies": 1,
    "place_name": "La Rioja",
    "company_name": "",
    "day": 18
  },
  "geometry": {
    "coordinates": [
      -2.482702,
      42.283149
    ],
    "type": "Point"
  }
},
    {
      "type": "Feature",
      "properties": {
        "companies": 30,
        "place_name": "Madrid",
        "day": 18,
        "company_name": "Zurich Insurance"
      },
      "geometry": {
        "coordinates": [
          -3.685277,
          40.431984
        ],
        "type": "Point"
      }
    },
    {
  "type": "Feature",
  "properties": {
    "companies": 1,
    "place_name": "Palma de Mallorca",
    "company_name": "",
    "day": 19
  },
  "geometry": {
    "coordinates": [
      2.64972,
      39.56667
    ],
    "type": "Point"
  }
},
{
  "type": "Feature",
  "properties": {
    "companies": 1,
    "place_name": "Santiago de Compostela",
    "company_name": "",
    "day": 19
  },
  "geometry": {
    "coordinates": [
      -8.542904,
      42.874575
    ],
    "type": "Point"
  }
},
{
  "type": "Feature",
  "properties": {
    "companies": 2,
    "place_name": "Malaga",
    "company_name": "",
    "day": 19
  },
  "geometry": {
    "coordinates": [
      -4.412525,
      36.720476
    ],
    "type": "Point"
  }
},
{
  "type": "Feature",
  "properties": {
    "place_name": "Alicante, Alicante/Alacant, Spain",
    "companies": 2,
    "company_name": "",
    "day": 19
  },
  "geometry": {
    "coordinates": [
      -0.48306,
      38.34528
    ],
    "type": "Point"
  }
},
{
  "type": "Feature",
  "properties": {
    "companies": 1,
    "place_name": "Bilbao",
    "company_name": "",
    "day": 19
  },
  "geometry": {
    "coordinates": [
      -2.95333,
      43.26222
    ],
    "type": "Point"
  }
},
{
  "type": "Feature",
  "properties": {
    "companies": 5,
    "place_name": "Valencia",
    "company_name": "",
    "day": 19
  },
  "geometry": {
    "coordinates": [
      -0.380636,
      39.472596
    ],
    "type": "Point"
  }
},
{
  "type": "Feature",
  "properties": {
    "companies": 1,
    "place_name": "La Rioja",
    "company_name": "",
    "day": 19
  },
  "geometry": {
    "coordinates": [
      -2.482702,
      42.283149
    ],
    "type": "Point"
  }
},
    {
      "type": "Feature",
      "properties": {
        "companies": 1,
        "place_name": "Asturias",
        "company_name": "Volotea",
        "day": 19
      },
      "geometry": {
        "coordinates": [
          -5.819159,
          43.321814
        ],
        "type": "Point"
      }
    },
    {
      "type": "Feature",
      "properties": {
        "companies": 1,
        "place_name": "Huesca",
        "company_name": "Laboratorios Ordesa",
        "day": 19
      },
      "geometry": {
        "coordinates": [
          -0.4089,
          42.1401
        ],
        "type": "Point"
      }
    },
    {
      "type": "Feature",
      "properties": {
        "companies": 31,
        "place_name": "Madrid",
        "day": 19,
        "company_name": "Servihabitat"
      },
      "geometry": {
        "coordinates": [
          -3.685277,
          40.431984
        ],
        "type": "Point"
      }
    },
    {
      "type": "Feature",
      "properties": {
        "companies": 3,
        "place_name": "Zaragoza",
        "company_name": "Pangaea Oncology",
        "day": 19
      },
      "geometry": {
        "coordinates": [
          -0.862361,
          41.66255
        ],
        "type": "Point"
      }
    },
    {
  "type": "Feature",
  "properties": {
    "companies": 1,
    "place_name": "Palma de Mallorca",
    "company_name": "",
    "day": 20
  },
  "geometry": {
    "coordinates": [
      2.64972,
      39.56667
    ],
    "type": "Point"
  }
},
{
  "type": "Feature",
  "properties": {
    "companies": 1,
    "place_name": "Santiago de Compostela",
    "company_name": "",
    "day": 20
  },
  "geometry": {
    "coordinates": [
      -8.542904,
      42.874575
    ],
    "type": "Point"
  }
},
{
  "type": "Feature",
  "properties": {
    "companies": 2,
    "place_name": "Malaga",
    "company_name": "",
    "day": 20
  },
  "geometry": {
    "coordinates": [
      -4.412525,
      36.720476
    ],
    "type": "Point"
  }
},
{
  "type": "Feature",
  "properties": {
    "place_name": "Alicante, Alicante/Alacant, Spain",
    "companies": 2,
    "company_name": "",
    "day": 20
  },
  "geometry": {
    "coordinates": [
      -0.48306,
      38.34528
    ],
    "type": "Point"
  }
},
{
  "type": "Feature",
  "properties": {
    "companies": 1,
    "place_name": "Bilbao",
    "company_name": "",
    "day": 20
  },
  "geometry": {
    "coordinates": [
      -2.95333,
      43.26222
    ],
    "type": "Point"
  }
},
{
  "type": "Feature",
  "properties": {
    "companies": 5,
    "place_name": "Valencia",
    "company_name": "",
    "day": 20
  },
  "geometry": {
    "coordinates": [
      -0.380636,
      39.472596
    ],
    "type": "Point"
  }
},
{
  "type": "Feature",
  "properties": {
    "companies": 1,
    "place_name": "La Rioja",
    "company_name": "",
    "day": 20
  },
  "geometry": {
    "coordinates": [
      -2.482702,
      42.283149
    ],
    "type": "Point"
  }
},
    {
      "type": "Feature",
      "properties": {
        "companies": 1,
        "place_name": "Asturias",
        "company_name": "",
        "day": 20
      },
      "geometry": {
        "coordinates": [
          -5.819159,
          43.321814
        ],
        "type": "Point"
      }
    },
    {
      "type": "Feature",
      "properties": {
        "companies": 1,
        "place_name": "Huesca",
        "company_name": "",
        "day": 20
      },
      "geometry": {
        "coordinates": [
          -0.4089,
          42.1401
        ],
        "type": "Point"
      }
    },
    {
      "type": "Feature",
      "properties": {
        "companies": 3,
        "place_name": "Zaragoza",
        "company_name": "",
        "day": 20
      },
      "geometry": {
        "coordinates": [
          -0.862361,
          41.66255
        ],
        "type": "Point"
      }
    },
    {
      "type": "Feature",
      "properties": {
        "companies": 35,
        "place_name": "Madrid",
        "day": 20,
        "company_name": "Cementos Molins, Comercia Global Payments, Building Center, CaixaBank Consumer Finance"
      },
      "geometry": {
        "coordinates": [
          -3.685277,
          40.431984
        ],
        "type": "Point"
      }
    },
    {
  "type": "Feature",
  "properties": {
    "companies": 1,
    "place_name": "Palma de Mallorca",
    "company_name": "",
    "day": 21
  },
  "geometry": {
    "coordinates": [
      2.64972,
      39.56667
    ],
    "type": "Point"
  }
},
{
  "type": "Feature",
  "properties": {
    "companies": 1,
    "place_name": "Santiago de Compostela",
    "company_name": "",
    "day": 21
  },
  "geometry": {
    "coordinates": [
      -8.542904,
      42.874575
    ],
    "type": "Point"
  }
},
{
  "type": "Feature",
  "properties": {
    "companies": 2,
    "place_name": "Malaga",
    "company_name": "",
    "day": 21
  },
  "geometry": {
    "coordinates": [
      -4.412525,
      36.720476
    ],
    "type": "Point"
  }
},
{
  "type": "Feature",
  "properties": {
    "place_name": "Alicante, Alicante/Alacant, Spain",
    "companies": 2,
    "company_name": "",
    "day": 21
  },
  "geometry": {
    "coordinates": [
      -0.48306,
      38.34528
    ],
    "type": "Point"
  }
},
{
  "type": "Feature",
  "properties": {
    "companies": 1,
    "place_name": "Bilbao",
    "company_name": "",
    "day": 21
  },
  "geometry": {
    "coordinates": [
      -2.95333,
      43.26222
    ],
    "type": "Point"
  }
},
{
  "type": "Feature",
  "properties": {
    "companies": 5,
    "place_name": "Valencia",
    "company_name": "",
    "day": 21
  },
  "geometry": {
    "coordinates": [
      -0.380636,
      39.472596
    ],
    "type": "Point"
  }
},
{
  "type": "Feature",
  "properties": {
    "companies": 1,
    "place_name": "La Rioja",
    "company_name": "",
    "day": 21
  },
  "geometry": {
    "coordinates": [
      -2.482702,
      42.283149
    ],
    "type": "Point"
  }
},
    {
      "type": "Feature",
      "properties": {
        "companies": 1,
        "place_name": "Asturias",
        "company_name": "",
        "day": 21
      },
      "geometry": {
        "coordinates": [
          -5.819159,
          43.321814
        ],
        "type": "Point"
      }
    },
    {
      "type": "Feature",
      "properties": {
        "companies": 1,
        "place_name": "Huesca",
        "company_name": "",
        "day": 21
      },
      "geometry": {
        "coordinates": [
          -0.4089,
          42.1401
        ],
        "type": "Point"
      }
    },
    {
      "type": "Feature",
      "properties": {
        "companies": 3,
        "place_name": "Zaragoza",
        "company_name": "",
        "day": 21
      },
      "geometry": {
        "coordinates": [
          -0.862361,
          41.66255
        ],
        "type": "Point"
      }
    },
    {
      "type": "Feature",
      "properties": {
        "companies": 35,
        "place_name": "Madrid",
        "day": 21,
        "company_name": ""
      },
      "geometry": {
        "coordinates": [
          -3.685277,
          40.431984
        ],
        "type": "Point"
      }
    },
    {
  "type": "Feature",
  "properties": {
    "companies": 1,
    "place_name": "Palma de Mallorca",
    "company_name": "",
    "day": 22
  },
  "geometry": {
    "coordinates": [
      2.64972,
      39.56667
    ],
    "type": "Point"
  }
},
{
  "type": "Feature",
  "properties": {
    "companies": 1,
    "place_name": "Santiago de Compostela",
    "company_name": "",
    "day": 22
  },
  "geometry": {
    "coordinates": [
      -8.542904,
      42.874575
    ],
    "type": "Point"
  }
},
{
  "type": "Feature",
  "properties": {
    "companies": 2,
    "place_name": "Malaga",
    "company_name": "",
    "day": 22
  },
  "geometry": {
    "coordinates": [
      -4.412525,
      36.720476
    ],
    "type": "Point"
  }
},
{
  "type": "Feature",
  "properties": {
    "place_name": "Alicante, Alicante/Alacant, Spain",
    "companies": 2,
    "company_name": "",
    "day": 22
  },
  "geometry": {
    "coordinates": [
      -0.48306,
      38.34528
    ],
    "type": "Point"
  }
},
{
  "type": "Feature",
  "properties": {
    "companies": 1,
    "place_name": "Bilbao",
    "company_name": "",
    "day": 22
  },
  "geometry": {
    "coordinates": [
      -2.95333,
      43.26222
    ],
    "type": "Point"
  }
},
{
  "type": "Feature",
  "properties": {
    "companies": 5,
    "place_name": "Valencia",
    "company_name": "",
    "day": 22
  },
  "geometry": {
    "coordinates": [
      -0.380636,
      39.472596
    ],
    "type": "Point"
  }
},
{
  "type": "Feature",
  "properties": {
    "companies": 1,
    "place_name": "La Rioja",
    "company_name": "",
    "day": 22
  },
  "geometry": {
    "coordinates": [
      -2.482702,
      42.283149
    ],
    "type": "Point"
  }
},
    {
      "type": "Feature",
      "properties": {
        "companies": 1,
        "place_name": "Asturias",
        "company_name": "",
        "day": 22
      },
      "geometry": {
        "coordinates": [
          -5.819159,
          43.321814
        ],
        "type": "Point"
      }
    },
    {
      "type": "Feature",
      "properties": {
        "companies": 1,
        "place_name": "Huesca",
        "company_name": "",
        "day": 22
      },
      "geometry": {
        "coordinates": [
          -0.4089,
          42.1401
        ],
        "type": "Point"
      }
    },
    {
      "type": "Feature",
      "properties": {
        "companies": 3,
        "place_name": "Zaragoza",
        "company_name": "",
        "day": 22
      },
      "geometry": {
        "coordinates": [
          -0.862361,
          41.66255
        ],
        "type": "Point"
      }
    },
    {
      "type": "Feature",
      "properties": {
        "companies": 35,
        "place_name": "Madrid",
        "day": 22,
        "company_name": ""
      },
      "geometry": {
        "coordinates": [
          -3.685277,
          40.431984
        ],
        "type": "Point"
      }
    },
    {
  "type": "Feature",
  "properties": {
    "companies": 1,
    "place_name": "Palma de Mallorca",
    "company_name": "",
    "day": 23
  },
  "geometry": {
    "coordinates": [
      2.64972,
      39.56667
    ],
    "type": "Point"
  }
},
{
  "type": "Feature",
  "properties": {
    "companies": 1,
    "place_name": "Santiago de Compostela",
    "company_name": "",
    "day": 23
  },
  "geometry": {
    "coordinates": [
      -8.542904,
      42.874575
    ],
    "type": "Point"
  }
},
{
  "type": "Feature",
  "properties": {
    "companies": 2,
    "place_name": "Malaga",
    "company_name": "",
    "day": 23
  },
  "geometry": {
    "coordinates": [
      -4.412525,
      36.720476
    ],
    "type": "Point"
  }
},
{
  "type": "Feature",
  "properties": {
    "place_name": "Alicante, Alicante/Alacant, Spain",
    "companies": 2,
    "company_name": "",
    "day": 23
  },
  "geometry": {
    "coordinates": [
      -0.48306,
      38.34528
    ],
    "type": "Point"
  }
},
{
  "type": "Feature",
  "properties": {
    "companies": 1,
    "place_name": "Bilbao",
    "company_name": "",
    "day": 23
  },
  "geometry": {
    "coordinates": [
      -2.95333,
      43.26222
    ],
    "type": "Point"
  }
},
{
  "type": "Feature",
  "properties": {
    "companies": 5,
    "place_name": "Valencia",
    "company_name": "",
    "day": 23
  },
  "geometry": {
    "coordinates": [
      -0.380636,
      39.472596
    ],
    "type": "Point"
  }
},
{
  "type": "Feature",
  "properties": {
    "companies": 1,
    "place_name": "La Rioja",
    "company_name": "",
    "day": 23
  },
  "geometry": {
    "coordinates": [
      -2.482702,
      42.283149
    ],
    "type": "Point"
  }
},
    {
      "type": "Feature",
      "properties": {
        "companies": 1,
        "place_name": "Asturias",
        "company_name": "",
        "day": 23
      },
      "geometry": {
        "coordinates": [
          -5.819159,
          43.321814
        ],
        "type": "Point"
      }
    },
    {
      "type": "Feature",
      "properties": {
        "companies": 1,
        "place_name": "Huesca",
        "company_name": "",
        "day": 23
      },
      "geometry": {
        "coordinates": [
          -0.4089,
          42.1401
        ],
        "type": "Point"
      }
    },
    {
      "type": "Feature",
      "properties": {
        "companies": 3,
        "place_name": "Zaragoza",
        "company_name": "",
        "day": 23
      },
      "geometry": {
        "coordinates": [
          -0.862361,
          41.66255
        ],
        "type": "Point"
      }
    },
    {
      "type": "Feature",
      "properties": {
        "companies": 1,
        "place_name": "Almeria",
        "company_name": "IEGD",
        "day": 23
      },
      "geometry": {
        "coordinates": [
          -2.45,
          36.83333
        ],
        "type": "Point"
      }
    },
    {
      "type": "Feature",
      "properties": {
        "companies": 38,
        "place_name": "Madrid",
        "day": 23,
        "company_name": "Cata, Artistas Diversos, Grupo Inclam"
      },
      "geometry": {
        "coordinates": [
          -3.685277,
          40.431984
        ],
        "type": "Point"
      }
    },
    {
  "type": "Feature",
  "properties": {
    "companies": 1,
    "place_name": "Palma de Mallorca",
    "company_name": "",
    "day": 24
  },
  "geometry": {
    "coordinates": [
      2.64972,
      39.56667
    ],
    "type": "Point"
  }
},
{
  "type": "Feature",
  "properties": {
    "companies": 1,
    "place_name": "Santiago de Compostela",
    "company_name": "",
    "day": 24
  },
  "geometry": {
    "coordinates": [
      -8.542904,
      42.874575
    ],
    "type": "Point"
  }
},
{
  "type": "Feature",
  "properties": {
    "companies": 2,
    "place_name": "Malaga",
    "company_name": "",
    "day": 24
  },
  "geometry": {
    "coordinates": [
      -4.412525,
      36.720476
    ],
    "type": "Point"
  }
},
{
  "type": "Feature",
  "properties": {
    "place_name": "Alicante, Alicante/Alacant, Spain",
    "companies": 2,
    "company_name": "",
    "day": 24
  },
  "geometry": {
    "coordinates": [
      -0.48306,
      38.34528
    ],
    "type": "Point"
  }
},
{
  "type": "Feature",
  "properties": {
    "companies": 1,
    "place_name": "Bilbao",
    "company_name": "",
    "day": 24
  },
  "geometry": {
    "coordinates": [
      -2.95333,
      43.26222
    ],
    "type": "Point"
  }
},
{
  "type": "Feature",
  "properties": {
    "companies": 5,
    "place_name": "Valencia",
    "company_name": "",
    "day": 24
  },
  "geometry": {
    "coordinates": [
      -0.380636,
      39.472596
    ],
    "type": "Point"
  }
},
{
  "type": "Feature",
  "properties": {
    "companies": 1,
    "place_name": "La Rioja",
    "company_name": "",
    "day": 24
  },
  "geometry": {
    "coordinates": [
      -2.482702,
      42.283149
    ],
    "type": "Point"
  }
},
    {
      "type": "Feature",
      "properties": {
        "companies": 1,
        "place_name": "Asturias",
        "company_name": "",
        "day": 24
      },
      "geometry": {
        "coordinates": [
          -5.819159,
          43.321814
        ],
        "type": "Point"
      }
    },
    {
      "type": "Feature",
      "properties": {
        "companies": 1,
        "place_name": "Huesca",
        "company_name": "",
        "day": 24
      },
      "geometry": {
        "coordinates": [
          -0.4089,
          42.1401
        ],
        "type": "Point"
      }
    },
    {
      "type": "Feature",
      "properties": {
        "companies": 3,
        "place_name": "Zaragoza",
        "company_name": "",
        "day": 24
      },
      "geometry": {
        "coordinates": [
          -0.862361,
          41.66255
        ],
        "type": "Point"
      }
    },
    {
      "type": "Feature",
      "properties": {
        "companies": 1,
        "place_name": "Almeria",
        "company_name": "",
        "day": 24
      },
      "geometry": {
        "coordinates": [
          -2.45,
          36.83333
        ],
        "type": "Point"
      }
    },
    {
      "type": "Feature",
      "properties": {
        "companies": 39,
        "place_name": "Madrid",
        "day": 24,
        "company_name": "Nexus"
      },
      "geometry": {
        "coordinates": [
          -3.685277,
          40.431984
        ],
        "type": "Point"
      }
    },
    {
  "type": "Feature",
  "properties": {
    "companies": 1,
    "place_name": "Palma de Mallorca",
    "company_name": "",
    "day": 25
  },
  "geometry": {
    "coordinates": [
      2.64972,
      39.56667
    ],
    "type": "Point"
  }
},
{
  "type": "Feature",
  "properties": {
    "companies": 1,
    "place_name": "Santiago de Compostela",
    "company_name": "",
    "day": 25
  },
  "geometry": {
    "coordinates": [
      -8.542904,
      42.874575
    ],
    "type": "Point"
  }
},
{
  "type": "Feature",
  "properties": {
    "companies": 2,
    "place_name": "Malaga",
    "company_name": "",
    "day": 25
  },
  "geometry": {
    "coordinates": [
      -4.412525,
      36.720476
    ],
    "type": "Point"
  }
},
{
  "type": "Feature",
  "properties": {
    "place_name": "Alicante, Alicante/Alacant, Spain",
    "companies": 2,
    "company_name": "",
    "day": 25
  },
  "geometry": {
    "coordinates": [
      -0.48306,
      38.34528
    ],
    "type": "Point"
  }
},
{
  "type": "Feature",
  "properties": {
    "companies": 1,
    "place_name": "Bilbao",
    "company_name": "",
    "day": 25
  },
  "geometry": {
    "coordinates": [
      -2.95333,
      43.26222
    ],
    "type": "Point"
  }
},
{
  "type": "Feature",
  "properties": {
    "companies": 5,
    "place_name": "Valencia",
    "company_name": "",
    "day": 25
  },
  "geometry": {
    "coordinates": [
      -0.380636,
      39.472596
    ],
    "type": "Point"
  }
},
{
  "type": "Feature",
  "properties": {
    "companies": 1,
    "place_name": "La Rioja",
    "company_name": "",
    "day": 25
  },
  "geometry": {
    "coordinates": [
      -2.482702,
      42.283149
    ],
    "type": "Point"
  }
},
    {
      "type": "Feature",
      "properties": {
        "companies": 1,
        "place_name": "Asturias",
        "company_name": "",
        "day": 25
      },
      "geometry": {
        "coordinates": [
          -5.819159,
          43.321814
        ],
        "type": "Point"
      }
    },
    {
      "type": "Feature",
      "properties": {
        "companies": 1,
        "place_name": "Huesca",
        "company_name": "",
        "day": 25
      },
      "geometry": {
        "coordinates": [
          -0.4089,
          42.1401
        ],
        "type": "Point"
      }
    },
    {
      "type": "Feature",
      "properties": {
        "companies": 3,
        "place_name": "Zaragoza",
        "company_name": "",
        "day": 25
      },
      "geometry": {
        "coordinates": [
          -0.862361,
          41.66255
        ],
        "type": "Point"
      }
    },
    {
      "type": "Feature",
      "properties": {
        "companies": 1,
        "place_name": "Almeria",
        "company_name": "",
        "day": 25
      },
      "geometry": {
        "coordinates": [
          -2.45,
          36.83333
        ],
        "type": "Point"
      }
    },
    {
      "type": "Feature",
      "properties": {
        "companies": 41,
        "place_name": "Madrid",
        "day": 25,
        "company_name": "Faccsa, Inkemia"
      },
      "geometry": {
        "coordinates": [
          -3.685277,
          40.431984
        ],
        "type": "Point"
      }
    },
    {
  "type": "Feature",
  "properties": {
    "companies": 1,
    "place_name": "Palma de Mallorca",
    "company_name": "",
    "day": 26
  },
  "geometry": {
    "coordinates": [
      2.64972,
      39.56667
    ],
    "type": "Point"
  }
},
{
  "type": "Feature",
  "properties": {
    "companies": 1,
    "place_name": "Santiago de Compostela",
    "company_name": "",
    "day": 26
  },
  "geometry": {
    "coordinates": [
      -8.542904,
      42.874575
    ],
    "type": "Point"
  }
},
{
  "type": "Feature",
  "properties": {
    "companies": 2,
    "place_name": "Malaga",
    "company_name": "",
    "day": 26
  },
  "geometry": {
    "coordinates": [
      -4.412525,
      36.720476
    ],
    "type": "Point"
  }
},
{
  "type": "Feature",
  "properties": {
    "place_name": "Alicante, Alicante/Alacant, Spain",
    "companies": 2,
    "company_name": "",
    "day": 26
  },
  "geometry": {
    "coordinates": [
      -0.48306,
      38.34528
    ],
    "type": "Point"
  }
},
{
  "type": "Feature",
  "properties": {
    "companies": 1,
    "place_name": "Bilbao",
    "company_name": "",
    "day": 26
  },
  "geometry": {
    "coordinates": [
      -2.95333,
      43.26222
    ],
    "type": "Point"
  }
},
{
  "type": "Feature",
  "properties": {
    "companies": 5,
    "place_name": "Valencia",
    "company_name": "",
    "day": 26
  },
  "geometry": {
    "coordinates": [
      -0.380636,
      39.472596
    ],
    "type": "Point"
  }
},
{
  "type": "Feature",
  "properties": {
    "companies": 1,
    "place_name": "La Rioja",
    "company_name": "",
    "day": 26
  },
  "geometry": {
    "coordinates": [
      -2.482702,
      42.283149
    ],
    "type": "Point"
  }
},
    {
      "type": "Feature",
      "properties": {
        "companies": 1,
        "place_name": "Asturias",
        "company_name": "",
        "day": 26
      },
      "geometry": {
        "coordinates": [
          -5.819159,
          43.321814
        ],
        "type": "Point"
      }
    },
    {
      "type": "Feature",
      "properties": {
        "companies": 1,
        "place_name": "Huesca",
        "company_name": "",
        "day": 26
      },
      "geometry": {
        "coordinates": [
          -0.4089,
          42.1401
        ],
        "type": "Point"
      }
    },
    {
      "type": "Feature",
      "properties": {
        "companies": 3,
        "place_name": "Zaragoza",
        "company_name": "",
        "day": 26
      },
      "geometry": {
        "coordinates": [
          -0.862361,
          41.66255
        ],
        "type": "Point"
      }
    },
    {
      "type": "Feature",
      "properties": {
        "companies": 1,
        "place_name": "Almeria",
        "company_name": "",
        "day": 26
      },
      "geometry": {
        "coordinates": [
          -2.45,
          36.83333
        ],
        "type": "Point"
      }
    },
    {
      "type": "Feature",
      "properties": {
        "companies": 41,
        "place_name": "Madrid",
        "day": 26,
        "company_name": ""
      },
      "geometry": {
        "coordinates": [
          -3.685277,
          40.431984
        ],
        "type": "Point"
      }
    },
    {
  "type": "Feature",
  "properties": {
    "companies": 1,
    "place_name": "Palma de Mallorca",
    "company_name": "",
    "day": 27
  },
  "geometry": {
    "coordinates": [
      2.64972,
      39.56667
    ],
    "type": "Point"
  }
},
{
  "type": "Feature",
  "properties": {
    "companies": 1,
    "place_name": "Santiago de Compostela",
    "company_name": "",
    "day": 27
  },
  "geometry": {
    "coordinates": [
      -8.542904,
      42.874575
    ],
    "type": "Point"
  }
},
{
  "type": "Feature",
  "properties": {
    "companies": 2,
    "place_name": "Malaga",
    "company_name": "",
    "day": 27
  },
  "geometry": {
    "coordinates": [
      -4.412525,
      36.720476
    ],
    "type": "Point"
  }
},
{
  "type": "Feature",
  "properties": {
    "place_name": "Alicante, Alicante/Alacant, Spain",
    "companies": 2,
    "company_name": "",
    "day": 27
  },
  "geometry": {
    "coordinates": [
      -0.48306,
      38.34528
    ],
    "type": "Point"
  }
},
{
  "type": "Feature",
  "properties": {
    "companies": 1,
    "place_name": "Bilbao",
    "company_name": "",
    "day": 27
  },
  "geometry": {
    "coordinates": [
      -2.95333,
      43.26222
    ],
    "type": "Point"
  }
},
{
  "type": "Feature",
  "properties": {
    "companies": 5,
    "place_name": "Valencia",
    "company_name": "",
    "day": 27
  },
  "geometry": {
    "coordinates": [
      -0.380636,
      39.472596
    ],
    "type": "Point"
  }
},
{
  "type": "Feature",
  "properties": {
    "companies": 1,
    "place_name": "La Rioja",
    "company_name": "",
    "day": 27
  },
  "geometry": {
    "coordinates": [
      -2.482702,
      42.283149
    ],
    "type": "Point"
  }
},
    {
      "type": "Feature",
      "properties": {
        "companies": 1,
        "place_name": "Asturias",
        "company_name": "",
        "day": 27
      },
      "geometry": {
        "coordinates": [
          -5.819159,
          43.321814
        ],
        "type": "Point"
      }
    },
    {
      "type": "Feature",
      "properties": {
        "companies": 1,
        "place_name": "Huesca",
        "company_name": "",
        "day": 27
      },
      "geometry": {
        "coordinates": [
          -0.4089,
          42.1401
        ],
        "type": "Point"
      }
    },
    {
      "type": "Feature",
      "properties": {
        "companies": 3,
        "place_name": "Zaragoza",
        "company_name": "",
        "day": 27
      },
      "geometry": {
        "coordinates": [
          -0.862361,
          41.66255
        ],
        "type": "Point"
      }
    },
    {
      "type": "Feature",
      "properties": {
        "companies": 1,
        "place_name": "Almeria",
        "company_name": "",
        "day": 27
      },
      "geometry": {
        "coordinates": [
          -2.45,
          36.83333
        ],
        "type": "Point"
      }
    },
    {
      "type": "Feature",
      "properties": {
        "companies": 43,
        "place_name": "Madrid",
        "day": 27,
        "company_name": "Agile Content, Allianz Seguros"
      },
      "geometry": {
        "coordinates": [
          -3.685277,
          40.431984
        ],
        "type": "Point"
      }
    },
    {
  "type": "Feature",
  "properties": {
    "companies": 1,
    "place_name": "Palma de Mallorca",
    "company_name": "",
    "day": 28
  },
  "geometry": {
    "coordinates": [
      2.64972,
      39.56667
    ],
    "type": "Point"
  }
},
{
  "type": "Feature",
  "properties": {
    "companies": 1,
    "place_name": "Santiago de Compostela",
    "company_name": "",
    "day": 28
  },
  "geometry": {
    "coordinates": [
      -8.542904,
      42.874575
    ],
    "type": "Point"
  }
},
{
  "type": "Feature",
  "properties": {
    "companies": 2,
    "place_name": "Malaga",
    "company_name": "",
    "day": 28
  },
  "geometry": {
    "coordinates": [
      -4.412525,
      36.720476
    ],
    "type": "Point"
  }
},
{
  "type": "Feature",
  "properties": {
    "place_name": "Alicante, Alicante/Alacant, Spain",
    "companies": 2,
    "company_name": "",
    "day": 28
  },
  "geometry": {
    "coordinates": [
      -0.48306,
      38.34528
    ],
    "type": "Point"
  }
},
{
  "type": "Feature",
  "properties": {
    "companies": 1,
    "place_name": "Bilbao",
    "company_name": "",
    "day": 28
  },
  "geometry": {
    "coordinates": [
      -2.95333,
      43.26222
    ],
    "type": "Point"
  }
},
{
  "type": "Feature",
  "properties": {
    "companies": 5,
    "place_name": "Valencia",
    "company_name": "",
    "day": 28
  },
  "geometry": {
    "coordinates": [
      -0.380636,
      39.472596
    ],
    "type": "Point"
  }
},
{
  "type": "Feature",
  "properties": {
    "companies": 1,
    "place_name": "La Rioja",
    "company_name": "",
    "day": 28
  },
  "geometry": {
    "coordinates": [
      -2.482702,
      42.283149
    ],
    "type": "Point"
  }
},
    {
      "type": "Feature",
      "properties": {
        "companies": 1,
        "place_name": "Asturias",
        "company_name": "",
        "day": 28
      },
      "geometry": {
        "coordinates": [
          -5.819159,
          43.321814
        ],
        "type": "Point"
      }
    },
    {
      "type": "Feature",
      "properties": {
        "companies": 1,
        "place_name": "Huesca",
        "company_name": "",
        "day": 28
      },
      "geometry": {
        "coordinates": [
          -0.4089,
          42.1401
        ],
        "type": "Point"
      }
    },
    {
      "type": "Feature",
      "properties": {
        "companies": 3,
        "place_name": "Zaragoza",
        "company_name": "",
        "day": 28
      },
      "geometry": {
        "coordinates": [
          -0.862361,
          41.66255
        ],
        "type": "Point"
      }
    },
    {
      "type": "Feature",
      "properties": {
        "companies": 1,
        "place_name": "Almeria",
        "company_name": "",
        "day": 28
      },
      "geometry": {
        "coordinates": [
          -2.45,
          36.83333
        ],
        "type": "Point"
      }
    },
    {
      "type": "Feature",
      "properties": {
        "companies": 43,
        "place_name": "Madrid",
        "day": 28,
        "company_name": ""
      },
      "geometry": {
        "coordinates": [
          -3.685277,
          40.431984
        ],
        "type": "Point"
      }
    },
    {
  "type": "Feature",
  "properties": {
    "companies": 1,
    "place_name": "Palma de Mallorca",
    "company_name": "",
    "day": 29
  },
  "geometry": {
    "coordinates": [
      2.64972,
      39.56667
    ],
    "type": "Point"
  }
},
{
  "type": "Feature",
  "properties": {
    "companies": 1,
    "place_name": "Santiago de Compostela",
    "company_name": "",
    "day": 29
  },
  "geometry": {
    "coordinates": [
      -8.542904,
      42.874575
    ],
    "type": "Point"
  }
},
{
  "type": "Feature",
  "properties": {
    "companies": 2,
    "place_name": "Malaga",
    "company_name": "",
    "day": 29
  },
  "geometry": {
    "coordinates": [
      -4.412525,
      36.720476
    ],
    "type": "Point"
  }
},
{
  "type": "Feature",
  "properties": {
    "place_name": "Alicante, Alicante/Alacant, Spain",
    "companies": 2,
    "company_name": "",
    "day": 29
  },
  "geometry": {
    "coordinates": [
      -0.48306,
      38.34528
    ],
    "type": "Point"
  }
},
{
  "type": "Feature",
  "properties": {
    "companies": 1,
    "place_name": "Bilbao",
    "company_name": "",
    "day": 29
  },
  "geometry": {
    "coordinates": [
      -2.95333,
      43.26222
    ],
    "type": "Point"
  }
},
{
  "type": "Feature",
  "properties": {
    "companies": 5,
    "place_name": "Valencia",
    "company_name": "",
    "day": 29
  },
  "geometry": {
    "coordinates": [
      -0.380636,
      39.472596
    ],
    "type": "Point"
  }
},
{
  "type": "Feature",
  "properties": {
    "companies": 1,
    "place_name": "La Rioja",
    "company_name": "",
    "day": 29
  },
  "geometry": {
    "coordinates": [
      -2.482702,
      42.283149
    ],
    "type": "Point"
  }
},
    {
      "type": "Feature",
      "properties": {
        "companies": 1,
        "place_name": "Asturias",
        "company_name": "",
        "day": 29
      },
      "geometry": {
        "coordinates": [
          -5.819159,
          43.321814
        ],
        "type": "Point"
      }
    },
    {
      "type": "Feature",
      "properties": {
        "companies": 1,
        "place_name": "Huesca",
        "company_name": "",
        "day": 29
      },
      "geometry": {
        "coordinates": [
          -0.4089,
          42.1401
        ],
        "type": "Point"
      }
    },
    {
      "type": "Feature",
      "properties": {
        "companies": 3,
        "place_name": "Zaragoza",
        "company_name": "",
        "day": 29
      },
      "geometry": {
        "coordinates": [
          -0.862361,
          41.66255
        ],
        "type": "Point"
      }
    },
    {
      "type": "Feature",
      "properties": {
        "companies": 1,
        "place_name": "Almeria",
        "company_name": "",
        "day": 29
      },
      "geometry": {
        "coordinates": [
          -2.45,
          36.83333
        ],
        "type": "Point"
      }
    },
    {
      "type": "Feature",
      "properties": {
        "companies": 43,
        "place_name": "Madrid",
        "day": 29,
        "company_name": ""
      },
      "geometry": {
        "coordinates": [
          -3.685277,
          40.431984
        ],
        "type": "Point"
      }
    },
    {
  "type": "Feature",
  "properties": {
    "companies": 1,
    "place_name": "Palma de Mallorca",
    "company_name": "",
    "day": 30
  },
  "geometry": {
    "coordinates": [
      2.64972,
      39.56667
    ],
    "type": "Point"
  }
},
{
  "type": "Feature",
  "properties": {
    "companies": 1,
    "place_name": "Santiago de Compostela",
    "company_name": "",
    "day": 30
  },
  "geometry": {
    "coordinates": [
      -8.542904,
      42.874575
    ],
    "type": "Point"
  }
},
{
  "type": "Feature",
  "properties": {
    "companies": 2,
    "place_name": "Malaga",
    "company_name": "",
    "day": 30
  },
  "geometry": {
    "coordinates": [
      -4.412525,
      36.720476
    ],
    "type": "Point"
  }
},
{
  "type": "Feature",
  "properties": {
    "place_name": "Alicante, Alicante/Alacant, Spain",
    "companies": 2,
    "company_name": "",
    "day": 30
  },
  "geometry": {
    "coordinates": [
      -0.48306,
      38.34528
    ],
    "type": "Point"
  }
},
{
  "type": "Feature",
  "properties": {
    "companies": 1,
    "place_name": "Bilbao",
    "company_name": "",
    "day": 30
  },
  "geometry": {
    "coordinates": [
      -2.95333,
      43.26222
    ],
    "type": "Point"
  }
},
{
  "type": "Feature",
  "properties": {
    "companies": 5,
    "place_name": "Valencia",
    "company_name": "",
    "day": 30
  },
  "geometry": {
    "coordinates": [
      -0.380636,
      39.472596
    ],
    "type": "Point"
  }
},
{
  "type": "Feature",
  "properties": {
    "companies": 1,
    "place_name": "La Rioja",
    "company_name": "",
    "day": 30
  },
  "geometry": {
    "coordinates": [
      -2.482702,
      42.283149
    ],
    "type": "Point"
  }
},
    {
      "type": "Feature",
      "properties": {
        "companies": 1,
        "place_name": "Asturias",
        "company_name": "",
        "day": 30
      },
      "geometry": {
        "coordinates": [
          -5.819159,
          43.321814
        ],
        "type": "Point"
      }
    },
    {
      "type": "Feature",
      "properties": {
        "companies": 1,
        "place_name": "Huesca",
        "company_name": "",
        "day": 30
      },
      "geometry": {
        "coordinates": [
          -0.4089,
          42.1401
        ],
        "type": "Point"
      }
    },
    {
      "type": "Feature",
      "properties": {
        "companies": 3,
        "place_name": "Zaragoza",
        "company_name": "",
        "day": 30
      },
      "geometry": {
        "coordinates": [
          -0.862361,
          41.66255
        ],
        "type": "Point"
      }
    },
    {
      "type": "Feature",
      "properties": {
        "companies": 1,
        "place_name": "Almeria",
        "company_name": "",
        "day": 30
      },
      "geometry": {
        "coordinates": [
          -2.45,
          36.83333
        ],
        "type": "Point"
      }
    },
    {
      "type": "Feature",
      "properties": {
        "companies": 44,
        "place_name": "Madrid",
        "day": 30,
        "company_name": "Stada"
      },
      "geometry": {
        "coordinates": [
          -3.685277,
          40.431984
        ],
        "type": "Point"
      }
    },
    {
      "type": "Feature",
      "properties": {
        "companies": 1,
        "place_name": "Pontevedra",
        "company_name": "Bandalux",
        "day": 30
      },
      "geometry": {
        "coordinates": [
          -8.6475,
          42.43361
        ],
        "type": "Point"
      }
    },
    {
  "type": "Feature",
  "properties": {
    "companies": 1,
    "place_name": "Palma de Mallorca",
    "company_name": "",
    "day": 31
  },
  "geometry": {
    "coordinates": [
      2.64972,
      39.56667
    ],
    "type": "Point"
  }
},
{
  "type": "Feature",
  "properties": {
    "companies": 1,
    "place_name": "Santiago de Compostela",
    "company_name": "",
    "day": 31
  },
  "geometry": {
    "coordinates": [
      -8.542904,
      42.874575
    ],
    "type": "Point"
  }
},
{
  "type": "Feature",
  "properties": {
    "companies": 2,
    "place_name": "Malaga",
    "company_name": "",
    "day": 31
  },
  "geometry": {
    "coordinates": [
      -4.412525,
      36.720476
    ],
    "type": "Point"
  }
},
{
  "type": "Feature",
  "properties": {
    "place_name": "Alicante, Alicante/Alacant, Spain",
    "companies": 2,
    "company_name": "",
    "day": 31
  },
  "geometry": {
    "coordinates": [
      -0.48306,
      38.34528
    ],
    "type": "Point"
  }
},
{
  "type": "Feature",
  "properties": {
    "companies": 1,
    "place_name": "Bilbao",
    "company_name": "",
    "day": 31
  },
  "geometry": {
    "coordinates": [
      -2.95333,
      43.26222
    ],
    "type": "Point"
  }
},
{
  "type": "Feature",
  "properties": {
    "companies": 5,
    "place_name": "Valencia",
    "company_name": "",
    "day": 31
  },
  "geometry": {
    "coordinates": [
      -0.380636,
      39.472596
    ],
    "type": "Point"
  }
},
{
  "type": "Feature",
  "properties": {
    "companies": 1,
    "place_name": "La Rioja",
    "company_name": "",
    "day": 31
  },
  "geometry": {
    "coordinates": [
      -2.482702,
      42.283149
    ],
    "type": "Point"
  }
},
    {
      "type": "Feature",
      "properties": {
        "companies": 1,
        "place_name": "Asturias",
        "company_name": "",
        "day": 31
      },
      "geometry": {
        "coordinates": [
          -5.819159,
          43.321814
        ],
        "type": "Point"
      }
    },
    {
      "type": "Feature",
      "properties": {
        "companies": 1,
        "place_name": "Huesca",
        "company_name": "",
        "day": 31
      },
      "geometry": {
        "coordinates": [
          -0.4089,
          42.1401
        ],
        "type": "Point"
      }
    },
    {
      "type": "Feature",
      "properties": {
        "companies": 3,
        "place_name": "Zaragoza",
        "company_name": "",
        "day": 31
      },
      "geometry": {
        "coordinates": [
          -0.862361,
          41.66255
        ],
        "type": "Point"
      }
    },
    {
      "type": "Feature",
      "properties": {
        "companies": 1,
        "place_name": "Almeria",
        "company_name": "",
        "day": 31
      },
      "geometry": {
        "coordinates": [
          -2.45,
          36.83333
        ],
        "type": "Point"
      }
    },
    {
      "type": "Feature",
      "properties": {
        "companies": 44,
        "place_name": "Madrid",
        "day": 31,
        "company_name": ""
      },
      "geometry": {
        "coordinates": [
          -3.685277,
          40.431984
        ],
        "type": "Point"
      }
    },
    {
      "type": "Feature",
      "properties": {
        "companies": 1,
        "place_name": "Pontevedra",
        "company_name": "",
        "day": 31
      },
      "geometry": {
        "coordinates": [
          -8.6475,
          42.43361
        ],
        "type": "Point"
      }
    },
    {
      "type": "Feature",
      "properties": {
        "companies": 1,
        "place_name": "Sevilla",
        "company_name": "Uxafarma",
        "day": 31
      },
      "geometry": {
        "coordinates": [
          -5.970772,
          37.390461
        ],
        "type": "Point"
      }
    }
  ]
}