{"type":"FeatureCollection","features":[{"geometry":{"coordinates":[-8.542904695066653,42.87457523738976],"type":"Point"},"type":"Feature","properties":{"companies":1,"place_name":"Santiago de Compostela"}},{"place_name":"Pontevedra, Pontevedra, Spain","bbox":[-8.698348,42.342869,-8.554682,42.512843],"text":"Pontevedra","context":[{"id":"region.3424","short_code":"ES-PO","wikidata":"Q95086","text":"Pontevedra"},{"id":"country.3110","short_code":"es","wikidata":"Q29","text":"Spain"}],"geometry":{"type":"Point","coordinates":[-8.6475,42.43361]},"place_type":["place"],"properties":{"companies":1,"place_name":"Pontevedra"},"center":[-8.6475,42.43361],"relevance":1,"type":"Feature"},{"place_name":"Asturias, Spain","bbox":[-7.182489,42.882543,-4.509925,43.766228],"text":"Asturias","context":[{"id":"country.3110","short_code":"es","wikidata":"Q29","text":"Spain"}],"geometry":{"type":"Point","coordinates":[-5.819159,43.321814]},"place_type":["region"],"properties":{"companies":1,"place_name":"Asturias"},"center":[-5.819159,43.321814],"relevance":1,"type":"Feature"},{"place_name":"Bilbao, Bizkaia, Spain","bbox":[-2.985976,43.213642,-2.880226,43.294754],"text":"Bilbao","context":[{"id":"region.3336","short_code":"ES-BI","wikidata":"Q93366","text":"Bizkaia"},{"id":"country.3110","short_code":"es","wikidata":"Q29","text":"Spain"}],"geometry":{"type":"Point","coordinates":[-2.95333,43.26222]},"place_type":["place"],"properties":{"companies":1,"place_name":"Bilbao"},"center":[-2.95333,43.26222],"relevance":1,"type":"Feature"},{"place_name":"Navarra, Spain","bbox":[-2.500083,41.909894,-0.72395,43.314792],"text":"Navarra","context":[{"id":"country.3110","short_code":"es","wikidata":"Q29","text":"Spain"}],"geometry":{"type":"Point","coordinates":[-1.830759,42.613133]},"place_type":["region"],"properties":{"companies":1,"place_name":"Navarra"},"center":[-1.830759,42.613133],"relevance":1,"type":"Feature"},{"place_name":"La Rioja, Spain","bbox":[-3.134271,41.919034,-1.678715,42.644265],"text":"La Rioja","context":[{"id":"country.3110","short_code":"es","wikidata":"Q29","text":"Spain"}],"geometry":{"type":"Point","coordinates":[-2.482702,42.283149]},"place_type":["region"],"properties":{"companies":1,"place_name":"La Rioja"},"center":[-2.482702,42.283149],"relevance":1,"type":"Feature"},{"place_name":"Huesca, Huesca, Spain","bbox":[-0.517632,42.028034,-0.336907,42.244747],"text":"Huesca","context":[{"id":"region.219936","short_code":"ES-HU","wikidata":"Q55182","text":"Huesca"},{"id":"country.3110","short_code":"es","wikidata":"Q29","text":"Spain"}],"geometry":{"type":"Point","coordinates":[-0.4089,42.1401]},"place_type":["place"],"properties":{"companies":1,"place_name":"Huesca"},"center":[-0.4089,42.1401],"relevance":1,"type":"Feature"},{"geometry":{"coordinates":[-0.8623616211255296,41.66255078781191],"type":"Point"},"type":"Feature","properties":{"companies":3,"place_name":"Zaragoza"}},{"geometry":{"coordinates":[-3.6852777191846258,40.431984192471816],"type":"Point"},"type":"Feature","properties":{"companies":44,"place_name":"Madrid"}},{"geometry":{"coordinates":[-0.38063688907442383,39.47259681842968],"type":"Point"},"type":"Feature","properties":{"companies":5,"place_name":"Valencia"}},{"place_name":"Alicante, Alicante/Alacant, Spain","bbox":[-0.656677,38.162177,-0.374728,38.53727],"text":"Alicante","context":[{"id":"region.219068","short_code":"ES-A","wikidata":"Q54936","text":"Alicante/Alacant"},{"id":"country.3110","short_code":"es","wikidata":"Q29","text":"Spain"}],"geometry":{"type":"Point","coordinates":[-0.48306,38.34528]},"place_type":["place"],"properties":{"place_name":"Alicante, Alicante/Alacant, Spain","companies":1},"center":[-0.48306,38.34528],"relevance":1,"type":"Feature"},{"place_name":"Palma de Mallorca, Illes Balears, Spain","bbox":[2.563704,39.124455,2.979984,39.658431],"text":"Palma de Mallorca","context":[{"id":"region.3861","short_code":"ES-IB","wikidata":"Q5765","text":"Illes Balears"},{"id":"country.3110","short_code":"es","wikidata":"Q29","text":"Spain"}],"geometry":{"type":"Point","coordinates":[2.64972,39.56667]},"place_type":["place"],"properties":{"companies":1,"place_name":"Palma de Mallorca"},"center":[2.64972,39.56667],"relevance":1,"type":"Feature"},{"place_name":"Córdoba, Córdoba, Spain","bbox":[-4.998232,37.665973,-4.350911,38.031608],"text":"Córdoba","context":[{"id":"region.3420","short_code":"ES-CO","wikidata":"Q81972","text":"Córdoba"},{"id":"country.3110","short_code":"es","wikidata":"Q29","text":"Spain"}],"geometry":{"type":"Point","coordinates":[-4.76667,37.88333]},"place_type":["place"],"properties":{"companies":1,"place_name":"Cordoba"},"center":[-4.76667,37.88333],"relevance":1,"type":"Feature"},{"geometry":{"coordinates":[-5.970772173186759,37.390461466488176],"type":"Point"},"type":"Feature","properties":{"companies":1,"place_name":"Sevilla"}},{"place_name":"Málaga, Málaga, Spain","bbox":[-4.587866,36.63459,-4.260494,36.89404],"text":"Málaga","context":[{"id":"region.219917","short_code":null,"wikidata":"Q8851","text":"Málaga"},{"id":"country.3110","short_code":"es","wikidata":"Q29","text":"Spain"}],"geometry":{"type":"Point","coordinates":[-4.412525,36.720476]},"place_type":["place"],"properties":{"companies":2,"place_name":"Malaga"},"center":[-4.412525,36.720476],"relevance":1,"type":"Feature"},{"place_name":"Almería, Almería, Spain","bbox":[-3.037835,35.937227,-2.20237,37.000195],"text":"Almería","context":[{"id":"region.3663","short_code":"ES-AL","wikidata":"Q81802","text":"Almería"},{"id":"country.3110","short_code":"es","wikidata":"Q29","text":"Spain"}],"geometry":{"type":"Point","coordinates":[-2.45,36.83333]},"place_type":["place"],"properties":{"companies":1,"place_name":"Almeria"},"center":[-2.45,36.83333],"relevance":1,"type":"Feature"}]}